ONEWEB-0555             
1 56057U 23043M   24124.64624508  .00000074  00000+0  15934-3 0  9998
2 56057  87.9147  22.9473 0002167  60.5699 299.5648 13.16596699 57043
ONEWEB-0557             
1 56058U 23043N   24124.43250069 -.00000053  00000+0 -17272-3 0  9999
2 56058  87.9146  23.0155 0002072  48.5855 311.5454 13.16595542 57010
ONEWEB-0558             
1 56059U 23043P   24124.46279176  .00000048  00000+0  85621-4 0  9999
2 56059  87.9319  38.1862 0002061  94.4363 265.7006 13.21824723 55896
ONEWEB-0559             
1 56060U 23043Q   24124.30034535  .00000095  00000+0  19942-3 0  9996
2 56060  87.9316  38.2171 0001437  94.6337 265.4961 13.21824287 55889
ONEWEB-0566             
1 56061U 23043R   24124.52113225  .00000003  00000+0 -24597-4 0  9998
2 56061  87.9317  38.1740 0002062 101.2693 258.8673 13.21823726 55891
ONEWEB-0568             
1 56062U 23043S   24124.44991790 -.00000029  00000+0 -11004-3 0  9998
2 56062  87.9144  22.9763 0002089  72.0322 288.1036 13.16595531 57030
ONEWEB-0574             
1 56063U 23043T   24124.51482416  .00000000  00000+0 -30685-4 0  9992
2 56063  87.9316  38.1706 0002083  81.0445 279.0925 13.21823876 55933
ONEWEB-0575             
1 56064U 23043U   24124.44358340 -.00000035  00000+0 -12451-3 0  9992
2 56064  87.9148  22.9860 0001652  61.3896 298.7401 13.16595024 57025
ONEWEB-0576             
1 56065U 23043V   24124.42458369  .00000029  00000+0  42510-4 0  9994
2 56065  87.9145  22.9880 0002021  67.7364 292.3981 13.16596386 57010
ONEWEB-0577             
1 56066U 23043W   24124.43092532  .00000960  00000+0  24770-2 0  9992
2 56066  87.9148  22.9856 0001508  52.7333 307.3935 13.16591318 57045
ONEWEB-0578             
1 56067U 23043X   24124.50221376 -.00000083  00000+0 -23226-3 0  9995
2 56067  87.9317  38.1699 0002051  76.6355 283.5007 13.21824405 55899
ONEWEB-0579             
1 56068U 23043Y   24124.49274429 -.00000039  00000+0 -12594-3 0  9998
2 56068  87.9316  38.1707 0001655  90.7948 269.3376 13.21823867 55907
ONEWEB-0581             
1 56069U 23043Z   24124.43725611  .00000047  00000+0  89670-4 0  9994
2 56069  87.9146  23.0142 0001315  68.9372 291.1900 13.16594679 57016
ONEWEB-0609             
1 56070U 23043AA  24124.31168506  .00000156  00000+0  37972-3 0  9995
2 56070  87.9047  53.4151 0001988  82.3431 277.7925 13.15551198 54558
ONEWEB-0613             
1 56071U 23043AB  24124.53512268 -.00000015  00000+0 -74641-4 0  9999
2 56071  87.9051  53.3650 0001787  90.9600 269.1735 13.15549701 54581
ONEWEB-0630             
1 56072U 23043AC  24124.53036141  .00000216  00000+0  54066-3 0  9990
2 56072  87.9048  53.3585 0001995  92.6738 267.4620 13.15547975 54571
ONEWEB-0632             
1 56073U 23043AD  24124.52560589 -.00000118  00000+0 -34839-3 0  9997
2 56073  87.9047  53.3780 0001551  77.5963 282.5341 13.15548483 54571
ONEWEB-0633             
1 56074U 23043AE  24124.51926313 -.00000150  00000+0 -43367-3 0  9990
2 56074  87.9045  53.3625 0002164  96.4921 263.6455 13.15550261 54554
ONEWEB-0634             
1 56075U 23043AF  24124.50500521 -.00000037  00000+0 -13192-3 0  9996
2 56075  87.9054  53.3733 0002339  81.2762 278.8633 13.15549486 54546
ONEWEB-0635             
1 56076U 23043AG  24124.34814479  .00000022  00000+0  24462-4 0  9994
2 56076  87.9051  53.4607 0001518  73.7853 286.3444 13.15549228 54559
ONEWEB-0636             
1 56077U 23043AH  24124.49233186  .00000119  00000+0  28198-3 0  9997
2 56077  87.9049  53.4014 0001599  74.4068 285.7239 13.15549902 54558
ONEWEB-0637             
1 56078U 23043AJ  24124.56204595  .00000079  00000+0  17601-3 0  9990
2 56078  87.9053  53.3633 0001597  71.9742 288.1562 13.15551029 54581
ONEWEB-0647             
1 56079U 23043AK  24124.55729631  .00000092  00000+0  21110-3 0  9998
2 56079  87.9048  53.3840 0001610  79.7175 280.4136 13.15549377 54572
ONEWEB-0651             
1 56080U 23043AL  24124.55254020  .00000091  00000+0  20747-3 0  9999
2 56080  87.9050  53.3603 0001713  68.5422 291.5891 13.15550367 54571
ONEWEB-0718             
1 56081U 23043AM  24124.54779274  .00000018  00000+0  12946-4 0  9994
2 56081  87.9048  53.3479 0002600  80.5925 279.5499 13.15550718 54589
ONEWEB-0561             
1 56710U 23068A   24124.58458877 -.00000130  00000+0 -35074-3 0  9990
2 56710  87.9212  68.5905 0001599  96.9283 263.2032 13.20770622 47250
ONEWEB-0668             
1 56711U 23068B   24124.43962864  .00000045  00000+0  83084-4 0  9999
2 56711  87.9137  22.9991 0002491  74.3201 285.8205 13.16593915 49839
ONEWEB-0676             
1 56712U 23068C   24124.64533435 -.00010349  00000+0 -27713-1 0  9995
2 56712  87.9150  22.9590 0002925  82.6528 277.4934 13.15157036 49785
ONEWEB-0677             
1 56713U 23068D   24124.54536431 -.00002687  00000+0 -53800-2 0  9997
2 56713  88.3267  67.7095 0001634  72.3104 287.8216 13.34802291 48192
ONEWEB-0678             
1 56714U 23068E   24124.51609304 -.00000128  00000+0 -37430-3 0  9995
2 56714  87.9051  53.3180 0001822  90.0806 270.0533 13.15550308 47430
ONEWEB-0679             
1 56715U 23068F   24124.61696378  .00000078  00000+0  17131-3 0  9992
2 56715  87.9140  22.9710 0002155  59.7810 300.3534 13.16595069 49803
ONEWEB-0680             
1 56716U 23068G   24124.48092060  .00000046  00000+0  79354-4 0  9997
2 56716  87.9318  38.2119 0002692  70.9053 289.2372 13.21828396 48750
ONEWEB-0681             
1 56717U 23068H   24124.50614701 -.00000025  00000+0 -92616-4 0  9998
2 56717  87.9317  38.1943 0001013  46.5738 313.5480 13.21827854 48747
ONEWEB-0682             
1 56718U 23068J   24124.54224165  .00000008  00000+0 -13758-4 0  9994
2 56718  87.9048  53.3559 0002405  68.8925 291.2462 13.15549152 47603
ONEWEB-0683             
1 56719U 23068K   24124.56363216  .00000111  00000+0  26091-3 0  9995
2 56719  87.9050  53.3245 0002191  73.4989 286.6382 13.15550870 47577
ONEWEB-0684             
1 56720U 23068L   24124.49549249  .00000161  00000+0  39304-3 0  9997
2 56720  87.9051  53.4142 0002569 117.9761 242.1629 13.15551569 47395
ONEWEB-0686             
1 56721U 23068M   24124.45466040 -.00000045  00000+0 -15115-3 0  9998
2 56721  87.9140  23.0398 0001986  83.5555 276.5802 13.16596787 49772
ONEWEB-0694             
1 56722U 23068N   24124.63346839 -.00035964  00000+0 -95009-1 0  9998
2 56722  87.9142  22.9199 0002280  69.5509 290.5866 13.16214059 49857
ONEWEB-0696             
1 56723U 23068P   24124.52877102 -.00000072  00000+0 -22627-3 0  9999
2 56723  87.9049  53.3818 0001694  84.6110 275.5213 13.15549548 47517
ONEWEB-0703             
1 56724U 23068Q   24124.53827489 -.00000025  00000+0 -10035-3 0  9992
2 56724  87.9047  53.4010 0001012 118.9554 241.1678 13.15550450 47404
ONEWEB-0721             
1 56725U 23068R   24124.64331297  .00002859  00000+0  33287-3 0  9991
2 56725  86.6799 354.7130 0013107  73.4377 286.8286 14.84865589 51901
